0 COSMOS 2251 DEB
1 38057U 93036BRP 13281.80975374  .00001041  00000-0  62808-3 0   705
2 38057 074.0186 323.2811 0187444 039.8529 321.6201 13.99475615203500
0 COSMOS 2251 DEB
1 38057U 93036BRP 13282.81050489  .00001064  00000-0  64132-3 0   716
2 38057 074.0184 321.5481 0187279 038.0578 323.3673 13.99478076203644
0 COSMOS 2251 DEB
1 38057U 93036BRP 13283.81125045  .00001120  00000-0  67433-3 0   729
2 38057 074.0184 319.8179 0187388 035.9084 325.4474 13.99481326203786
0 COSMOS 2251 DEB
1 38057U 93036BRP 13285.45533164  .00001305  00000-0  78269-3 0   731
2 38057 074.0182 316.9718 0187949 032.5556 328.7181 13.99487871204010
0 COSMOS 2251 DEB
1 38057U 93036BRP 13287.38532714  .00001357  00000-0  81325-3 0   740
2 38057 074.0187 313.6289 0188013 028.7416 332.4066 13.99494013204286
0 COSMOS 2251 DEB
1 38057U 93036BRP 13288.74346594  .00001371  00000-0  82126-3 0   757
2 38057 074.0179 311.2765 0188107 026.1307 334.9200 13.99498011204475
0 COSMOS 2251 DEB
1 38057U 93036BRP 13290.38752586  .00001468  00000-0  87802-3 0   766
2 38057 074.0180 308.4320 0188530 022.8352 338.1369 13.99504801204708
0 COSMOS 2251 DEB
1 38057U 93036BRP 13291.38824697  .00001485  00000-0  88769-3 0   773
2 38057 074.0183 306.7003 0188646 020.8516 340.0239 13.99508193204849
0 COSMOS 2251 DEB
1 38057U 93036BRP 13293.38969412  .00001529  00000-0  91326-3 0   783
2 38057 074.0174 303.2337 0188844 016.8492 343.8883 13.99515013205126
0 COSMOS 2251 DEB
1 38057U 93036BRP 13295.39113022  .00001666  00000-0  99706-3 0   797
2 38057 074.0197 299.7662 0186760 013.3775 347.2939 13.99524414205408
